NORAD_CAT_ID,OBJECT_NAME,OBJECT_TYPE,EPOCH,MEAN_MOTION,ECCENTRICITY,INCLINATION,RA_OF_ASC_NODE,ARG_OF_PERICENTER,MEAN_ANOMALY,BSTAR,MEAN_MOTION_DOT,MEAN_MOTION_DDOT,TLE_LINE0,TLE_LINE1,TLE_LINE2,SEMIMAJOR_AXIS,PERIOD,APOGEE,PERIGEE,DECAYED
55790.0,STARLINK-5813,PAYLOAD,2023-05-03 14:23:17,15.6992448,0.0003254,69.9986,344.1274,270.3303,89.752,2.4369e-06,8e-07,0.0,0 STARLINK-5813,1 55790U 23028BB  23123.59950459  .00000080  00000-0  24369-5 0  9995,2 55790  69.9986 344.1274 0003254 270.3303  89.7520 15.69924480 10226,6737.25,91.724,361.307,356.923,0.0
55790.0,STARLINK-5813,PAYLOAD,2023-05-03 17:26:47,15.69924276,0.0003191,69.998,343.7682,269.1856,90.8974,1.3709e-06,-4.8e-07,0.0,0 STARLINK-5813,1 55790U 23028BB  23123.72693737 -.00000048  00000-0  13709-5 0  9994,2 55790  69.9980 343.7682 0003191 269.1856  90.8974 15.69924276 10248,6737.251,91.724,361.266,356.966,0.0
55790.0,STARLINK-5813,PAYLOAD,2023-05-04 01:05:32,15.69928702,0.0003081,69.9976,342.8709,264.1126,95.9718,1.6861e-05,1.815e-05,0.0,0 STARLINK-5813,1 55790U 23028BB  23124.04551511  .00001815  00000-0  16861-4 0  9996,2 55790  69.9976 342.8709 0003081 264.1126  95.9718 15.69928702 10280,6737.238,91.724,361.179,357.027,0.0
55790.0,STARLINK-5813,PAYLOAD,2023-05-04 20:58:19,15.69921614,0.0003031,69.9971,340.5409,259.9546,100.1308,2.4554e-05,2.74e-05,0.0,0 STARLINK-5813,1 55790U 23028BB  23124.87383406  .00002740  00000-0  24554-4 0  9999,2 55790  69.9971 340.5409 0003031 259.9546 100.1308 15.69921614 10425,6737.258,91.724,361.165,357.081,0.0
55790.0,STARLINK-5813,PAYLOAD,2023-05-04 22:30:04,15.69921525,0.0002887,69.997,340.3618,257.2652,102.8221,2.2281e-05,2.467e-05,0.0,0 STARLINK-5813,1 55790U 23028BB  23124.93755166  .00002467  00000-0  22281-4 0  9993,2 55790  69.9970 340.3618 0002887 257.2652 102.8221 15.69921525 10425,6737.259,91.724,361.069,357.178,0.0
55790.0,STARLINK-5813,PAYLOAD,2023-05-05 16:51:06,15.6992145,0.0003564,69.9969,338.2136,268.8781,91.2006,1.0034e-05,9.94e-06,0.0,0 STARLINK-5813,1 55790U 23028BB  23125.70215542  .00000994  00000-0  10034-4 0  9994,2 55790  69.9969 338.2136 0003564 268.8781  91.2006 15.69921450 10540,6737.259,91.724,361.525,356.723,0.0
55790.0,STARLINK-5813,PAYLOAD,2023-05-05 18:22:51,15.69923157,0.000351,69.9974,338.0339,269.5083,90.5711,9.6835e-06,9.52e-06,0.0,0 STARLINK-5813,1 55790U 23028BB  23125.76587179  .00000952  00000-0  96835-5 0  9996,2 55790  69.9974 338.0339 0003510 269.5083  90.5711 15.69923157 10566,6737.254,91.724,361.484,356.754,0.0
55790.0,STARLINK-5813,PAYLOAD,2023-05-05 22:58:05,15.69936655,0.0003304,69.9967,337.4952,266.0727,94.009,1.5671e-05,1.673e-05,0.0,0 STARLINK-5813,1 55790U 23028BB  23125.95701142  .00001673  00000-0  15671-4 0  9994,2 55790  69.9967 337.4952 0003304 266.0727  94.0090 15.69936655 10588,6737.215,91.723,361.306,356.854,0.0
55790.0,STARLINK-5813,PAYLOAD,2023-05-06 15:47:22,15.69925476,0.0002855,69.998,335.5266,236.6067,123.4856,1.2639e-05,1.307e-05,0.0,0 STARLINK-5813,1 55790U 23028BB  23126.65790112  .00001307  00000-0  12639-4 0  9992,2 55790  69.9980 335.5266 0002855 236.6067 123.4856 15.69925476 10700,6737.247,91.724,361.036,357.189,0.0
55790.0,STARLINK-5813,PAYLOAD,2023-05-06 23:26:09,15.69915331,0.0003512,69.9962,334.6302,273.1523,86.9271,-7.7468e-06,-1.144e-05,0.0,0 STARLINK-5813,1 55790U 23028BB  23126.97649380 -.00001144  00000-0 -77468-5 0  9990,2 55790  69.9962 334.6302 0003512 273.1523  86.9271 15.69915331 10742,6737.276,91.725,361.507,356.775,0.0
55790.0,STARLINK-5813,PAYLOAD,2023-05-07 16:15:26,15.69913448,0.0003952,69.9974,332.6595,278.0951,81.9796,-1.2344e-05,-1.697e-05,0.0,0 STARLINK-5813,1 55790U 23028BB  23127.67738526 -.00001697  00000-0 -12344-4 0  9993,2 55790  69.9974 332.6595 0003952 278.0951  81.9796 15.69913448 10861,6737.282,91.725,361.809,356.484,0.0
55790.0,STARLINK-5813,PAYLOAD,2023-05-08 01:25:55,15.69932803,0.0003116,69.9974,331.5842,262.3432,97.741,9.9065e-06,9.79e-06,0.0,0 STARLINK-5813,1 55790U 23028BB  23128.05966726  .00000979  00000-0  99065-5 0  9997,2 55790  69.9974 331.5842 0003116 262.3432  97.7410 15.69932803 10916,6737.226,91.724,361.191,356.992,0.0
55790.0,STARLINK-5813,PAYLOAD,2023-05-08 21:18:41,15.69940122,0.0003935,69.997,329.2562,273.002,87.0725,-6.616e-06,-1.009e-05,0.0,0 STARLINK-5813,1 55790U 23028BB  23128.88798045 -.00001009  00000-0 -66160-5 0  9992,2 55790  69.9970 329.2562 0003935 273.0020  87.0725 15.69940122 11056,6737.205,91.723,361.721,356.419,0.0
55790.0,STARLINK-5813,PAYLOAD,2023-05-09 06:29:13,15.69918109,0.0003385,69.9971,328.1823,274.5823,85.4986,-6.1696e-06,-9.54e-06,0.0,0 STARLINK-5813,1 55790U 23028BB  23129.27029482 -.00000954  00000-0 -61696-5 0  9995,2 55790  69.9971 328.1823 0003385 274.5823  85.4986 15.69918109 11119,6737.268,91.725,361.414,356.853,0.0
55790.0,STARLINK-5813,PAYLOAD,2023-05-09 23:18:29,15.69927274,0.0003719,69.9976,326.21,272.3964,87.6806,-1.6583e-06,-4.12e-06,0.0,0 STARLINK-5813,1 55790U 23028BB  23129.97117539 -.00000412  00000-0 -16583-5 0  9997,2 55790  69.9976 326.2100 0003719 272.3964  87.6806 15.69927274 11224,6737.242,91.724,361.613,356.601,0.0
55790.0,STARLINK-5813,PAYLOAD,2023-05-10 19:11:15,15.69938398,0.0003676,69.9973,323.881,265.9293,94.1483,9.6752e-06,9.51e-06,0.0,0 STARLINK-5813,1 55790U 23028BB  23130.79948266  .00000951  00000-0  96752-5 0  9990,2 55790  69.9973 323.8810 0003676 265.9293  94.1483 15.69938398 11343,6737.21,91.723,361.552,356.599,0.0
55790.0,STARLINK-5813,PAYLOAD,2023-05-11 05:53:32,15.69915487,0.000378,69.997,322.6267,271.2328,88.8435,9.9097e-06,9.78e-06,0.0,0 STARLINK-5813,1 55790U 23028BB  23131.24551494  .00000978  00000-0  99097-5 0  9998,2 55790  69.9970 322.6267 0003780 271.2328  88.8435 15.69915487 11417,6737.276,91.725,361.687,356.594,0.0
55790.0,STARLINK-5813,PAYLOAD,2023-05-11 15:04:03,15.69917111,0.0003391,69.9981,321.5522,271.2037,88.877,8.5847e-06,8.19e-06,0.0,0 STARLINK-5813,1 55790U 23028BB  23131.62781787  .00000819  00000-0  85847-5 0  9992,2 55790  69.9981 321.5522 0003391 271.2037  88.8770 15.69917111 11481,6737.271,91.725,361.421,356.852,0.0
55790.0,STARLINK-5813,PAYLOAD,2023-05-11 21:11:03,15.69922271,0.0002921,69.9986,320.8377,262.2466,97.8398,2.5822e-05,2.893e-05,0.0,0 STARLINK-5813,1 55790U 23028BB  23131.88267983  .00002893  00000-0  25822-4 0  9997,2 55790  69.9986 320.8377 0002921 262.2466  97.8398 15.69922271 11513,6737.256,91.724,361.089,357.153,0.0
55790.0,STARLINK-5813,PAYLOAD,2023-05-11 22:42:48,15.6992613,0.0003197,69.9993,320.6561,257.6143,102.4695,2.5143e-05,2.812e-05,0.0,0 STARLINK-5813,1 55790U 23028BB  23131.94639506  .00002812  00000-0  25143-4 0  9995,2 55790  69.9993 320.6561 0003197 257.6143 102.4695 15.69926130 11533,6737.245,91.724,361.264,356.956,0.0
55790.0,STARLINK-5813,PAYLOAD,2023-05-12 15:32:04,15.69930729,0.0003211,69.9988,318.6864,276.489,83.594,3.4302e-06,2e-06,0.0,0 STARLINK-5813,1 55790U 23028BB  23132.64727656  .00000200  00000-0  34302-5 0  9994,2 55790  69.9988 318.6864 0003211 276.4890  83.5940 15.69930729 11648,6737.232,91.724,361.261,356.934,0.0
55790.0,STARLINK-5813,PAYLOAD,2023-05-12 21:39:05,15.69933001,0.0003251,69.9989,317.9699,286.7343,73.3496,1.1825e-05,1.21e-05,0.0,0 STARLINK-5813,1 55790U 23028BB  23132.90214280  .00001210  00000-0  11825-4 0  9993,2 55790  69.9989 317.9699 0003251 286.7343  73.3496 15.69933001 11670,6737.226,91.724,361.281,356.9,0.0
55790.0,STARLINK-5813,PAYLOAD,2023-05-13 05:17:50,15.69925109,0.0003968,69.999,317.074,266.2577,93.8165,-6.9438e-06,-1.048e-05,0.0,0 STARLINK-5813,1 55790U 23028BB  23133.22072714 -.00001048  00000-0 -69438-5 0  9998,2 55790  69.9990 317.0740 0003968 266.2577  93.8165 15.69925109 11723,6737.248,91.724,361.787,356.44,0.0
55790.0,STARLINK-5813,PAYLOAD,2023-05-13 12:56:37,15.69915965,0.0003106,70.001,316.1799,261.6571,98.4272,4.9531e-06,3.83e-06,0.0,0 STARLINK-5813,1 55790U 23028BB  23133.53931973  .00000383  00000-0  49531-5 0  9994,2 55790  70.0010 316.1799 0003106 261.6571  98.4272 15.69915965 11785,6737.274,91.725,361.232,357.047,0.0
55790.0,STARLINK-5813,PAYLOAD,2023-05-13 19:03:37,15.69918423,0.0003636,70.0007,315.4669,247.7093,112.3717,-1.2188e-05,-1.678e-05,0.0,0 STARLINK-5813,1 55790U 23028BB  23133.79418508 -.00001678  00000-0 -12188-4 0  9993,2 55790  70.0007 315.4669 0003636 247.7093 112.3717 15.69918423 11817,6737.267,91.725,361.582,356.683,0.0
55790.0,STARLINK-5813,PAYLOAD,2023-05-13 20:35:22,15.69921553,0.0003367,69.9999,315.2858,252.3526,107.7302,-1.1099e-06,-3.46e-06,0.0,0 STARLINK-5813,1 55790U 23028BB  23133.85790033 -.00000346  00000-0 -11099-5 0  9998,2 55790  69.9999 315.2858 0003367 252.3526 107.7302 15.69921553 11834,6737.258,91.724,361.392,356.855,0.0
55790.0,STARLINK-5813,PAYLOAD,2023-05-13 22:07:07,15.69927542,0.000326,70.0001,315.1046,259.5988,100.4841,6.6233e-06,5.84e-06,0.0,0 STARLINK-5813,1 55790U 23028BB  23133.92161506  .00000584  00000-0  66233-5 0  9995,2 55790  70.0001 315.1046 0003260 259.5988 100.4841 15.69927542 11834,6737.241,91.724,361.303,356.91,0.0
55790.0,STARLINK-5813,PAYLOAD,2023-05-14 13:24:38,15.69933293,0.0003103,70.0003,313.3122,275.1778,84.9063,1.8136e-05,1.969e-05,0.0,0 STARLINK-5813,1 55790U 23028BB  23134.55877727  .00001969  00000-0  18136-4 0  9990,2 55790  70.0003 313.3122 0003103 275.1778  84.9063 15.69933293 11942,6737.225,91.724,361.18,356.999,0.0
55790.0,STARLINK-5813,PAYLOAD,2023-05-14 21:03:24,15.69927742,0.0003612,69.9991,312.4163,261.5083,98.5704,3.613e-06,2.22e-06,0.0,0 STARLINK-5813,1 55790U 23028BB  23134.87736134  .00000222  00000-0  36130-5 0  9997,2 55790  69.9991 312.4163 0003612 261.5083  98.5704 15.69927742 11993,6737.241,91.724,361.539,356.672,0.0
55790.0,STARLINK-5813,PAYLOAD,2023-05-15 04:42:10,15.69914856,0.0003269,69.9998,311.5217,264.0503,96.032,3.034e-06,1.52e-06,0.0,0 STARLINK-5813,1 55790U 23028BB  23135.19595319  .00000152  00000-0  30340-5 0  9990,2 55790  69.9998 311.5217 0003269 264.0503  96.0320 15.69914856 12038,6737.278,91.725,361.345,356.94,0.0
